Groupname,Address,City,State,Latitude,Longtitude
ABER,951 Postal Road,Allentown,PA,40.6441817,-75.4520469
ABIA,1917 Navajo Circle,Abilene,TX,32.44645,-99.7475905
ABQA,1501 Renaissance Boulevard,Albuquerque,NM,35.1384551,-106.61161
ABQRT,3720 Spirit Drive South East,Albuquerque,NM,35.0319154,-106.6266219
ABRA,423 South Seventh Street,Aberdeen,SD,45.4603056,-98.4997731
ABYA,2501 West Gordon Avenue,Albany,GA,31.5634501,-84.219282
ACKA,12 Airport Road,Nantucket,MA,41.2609151,-70.0669189
ACTA,6601 Imperial Drive,Waco,TX,31.5040365,-97.1887078
ACYA,Four Canale Drive,Egg Harbor Township,NJ,39.4216906,-74.5594883
ADQA,1522 Devils Creek,Kodiak,AK,57.7549,-152.51116
AELA,7555 Meridian Circle North,Maple Grove,MN,45.09273,-93.4056
AEPA,Corrientes 654,Buenos Aires,BA,-34.6036215,-58.3781796
AGCA,351 32nd Street,Pittsburgh,PA,40.4596542,-79.9692818
AGSA,1070 Bertram Road,Augusta,GA,33.51313,-82.0323
AHNA,1090 Mitchell Bridge Road,Athens,GA,33.94371,-83.45152
AIZA,417 Washington Street,Chillicothe,MO,39.7913501,-93.555507
ALBR,40 Kelly Road,Latham,NY,42.7580715,-73.8030112
ALBRT,590 Broadway,Menands,NY,42.7055397,-73.7191915
ALNA,13342 Lake Front Drive,Earth City,MO,38.7699398,-90.4565102
ALOA,1135 Southtown Drive,Waterloo,IA,42.4560768,-92.3356762
AMSA,Breguetlaan 25,Oude Meer,NH,52.2885932,4.7793967
AMWA,238 Alexander Avenue,Ames,IA,42.0200719,-93.5789499
ANBA,198 Technology Way,Eastaboga,AL,33.5845501,-86.0508238
ANCA,6050 Rockwell Avenue,Anchorage,AK,61.1905653,-150.0000808
ANDA,4106 Liberty Highway,Anderson,SC,34.5609468,-82.6872144
AOHA,3499 Saint Johns Road,Lima,OH,40.6908665,-84.0915105
AOOA,3323 Route 764,Duncansville,PA,40.4603217,-78.4302194
APA,,,,,
APAA,7272 South Joliet Street,Englewood,CO,39.5862709,-104.8623356
APFA,3885 Mercantile Avenue,Naples,FL,26.1664344,-81.7627318
APGA,7066 Golden Ring Road,Baltimore,MD,39.334561,-76.4940902
APHA,4928 Richmond Road,Warsaw,VA,37.9599632,-76.7762337
APNA,2070 M 32 West,Alpena,MI,45.0620756,-83.4947044
ARBA,4556 Concourse Drive,Ann Arbor,MI,42.2207453,-83.7325619
AREA,Borinquen Airport Hanger 57,Aguadilla,PR,18.4959211,-67.1363477
ARTA,22530 Fisher Road,Watertown,NY,43.9933154,-75.9429786
ASEA,35 Sunset Drive,Basalt,CO,39.3730962,-107.0834933
ASHA,2601 South Ridge Road East,Ashtabula,OH,41.865141,-80.7637257
ASTA,427 Gateway,Astoria,OR,46.1863206,-123.8614546
ATIA,Juncal 1321,Montevideo,,-34.9068099,-56.2032068
ATLRT,4400 International Parkway,Atlanta,GA,33.6345148,-84.3946656
ATYA,120 8th Avenue,Watertown,SD,44.890701,-97.1173714
AUAA,Wayaca 31a,Oranjestad,,12.5066175,-70.0092469
AUGA,162 Whitten Road,Augusta,ME,44.3065523,-69.8114584
AUNA,1500 Nichols Drive,Rocklin,CA,38.8115109,-121.3149771
AUSA,5811 Techni Center Drive,Austin,TX,30.2774389,-97.6745495
AUSR,9301 Cargo Avenue,Austin,TX,30.2174796,-97.6746907
AVOA,745 West Central Avenue,Lake Wales,FL,27.9014101,-81.6063269
AVWA,4062 East Industry Drive,Sierra Vista,AZ,31.5649775,-110.2591639
AVXCE,11221 South Hindry Avenue,Los Angeles,CA,33.9325059,-118.3747439
AYNA,Tianzhu In Shunyi District,Beijing,,40.0622885,116.5704112
AZOA,6180 Corporate Avenue,Portage,MI,42.227847,-85.5342822
AZPA,Calzada De La Viga 1975,Mexico,DF,19.3543863,-99.1238906
AZPB,,,,,
AZPD,,,,,
AZPE,,,,,
AZPG,,,,,
AZPJ,,,,,
AZPM,,,,,
AZPO,Sur 8 Num. 203,Mexico,DF,19.3795781,-99.1299324
AZPT,Cal. Ignacio Zaragoza 1381 L15,Mexico,DF,19.3949151,-99.0574389
AZPU,,,,,
AZPX,Calzada Armada Mexico 1426,Mexico,DF,19.3139553,-99.112676
AZPY,Ave Eje 7 Sur 89 Municip Libre,Mexico,DF,19.3665418,-99.1388787
AirWatchpre,,,,,
BAFA,174 West Street,West Hatfield,MA,42.3897466,-72.6347684
BAQA,Kr 52 #72-149,Barranquilla,AT,10.9988077,-74.8062221
BCBA,13500 Eds Drive,Herndon,VA,38.9279107,-77.4291759
BDAA,3 Mill Creek Road,Pembroke,,32.299221,-64.8013237
BDLR,200 Signature Way,East Granby,CT,41.8477055,-72.5767723
BDLRT,35 International Drive,Windsor,CT,41.9233763,-72.7139892
BEDWK,550 Cochituate Road,Framingham,MA,42.3084817,-71.3933297
BFFA,250397 Apron Drive,Scottsbluff,NE,41.8702544,-103.5981708
BFIA,651 South Alaska Street,Seattle,WA,47.5604685,-122.3264618
BFLA,2103 Airport Drive,Bakersfield,CA,35.4253975,-119.0419398
BFMR,2135 Michigan Avenue,Mobile,AL,30.6424208,-88.0801243
BFRA,100 East Phoenix Drive,Huntingburg,IN,38.323663,-86.9623289
BGA,,,,,
BGAA,Kr 29 # 49-16,Bucaramanga,ST,7.1147723,-73.1149734
BGIA,Sheraton Centre,Christ Church,,13.0832983,-59.5666918
BGIB,Mcgregor Street,Bridgetown,,13.0967576,-59.6189833
BGMA,2123 Link Drive,Binghamton,NY,42.1055051,-75.8239705
BGRA,124 Banair Drive,Bangor,ME,44.7948482,-68.8272676
BHMA,4900 Alton Court,Irondale,AL,33.5532768,-86.6618693
BHMR,1710 40th Street North,Birmingham,AL,33.5532679,-86.7704565
BHMRT,4300-Coalburg Road,Birmingham,AL,33.5627203,-86.8457911
BIHA,701 Airport Road,Bishop,CA,37.3711137,-118.3681661
BILA,1148 First Avenue North,Billings,MT,45.7913134,-108.4869426
BISA,1212 Airport Road,Bismarck,ND,46.7915771,-100.7658492
BIXA,10440 Express Drive,Gulfport,MS,30.4393346,-89.0385645
BJCA,4901 South Zuni Street,Littleton,CO,39.6259687,-105.0190296
BJIA,1819 Division Street Southwest,Bemidji,MN,47.4689679,-94.9105737
BJJA,7450 Industrial Parkway,Lorain,OH,41.4097325,-82.2809706
BJXA,Beta 201 Parque Ind Delta,Leon,GT,21.0891513,-101.6203252
BJXD,Beta Num. 201,Leon,GT,21.089197,-101.62041
BKWA,176 Lockheed Drive,Beaver,WV,37.7968052,-81.1191415
BLIA,4373 Mitchell Way,Bellingham,WA,48.7992637,-122.5361093
BLVA,3000 Eastport Plaza Drive,Collinsville,IL,38.6884482,-90.0279153
BMGA,3900 Roll Avenue,Bloomington,IN,39.1475769,-86.5833061
BMIA,2407 East Empire Street,Bloomington,IL,40.4875525,-88.9367659
BMIR,3027 Cira Drive,Bloomington,IL,40.4829428,-88.9211079
BMLA,10 Industrial Drive,Londonderry,NH,42.9236669,-71.4371217
BNART,33 Airways Boulevard,Nashville,TN,36.1280878,-86.6897501
BNOA,6505 Southwest Rosewood Street,Lake Oswego,OR,45.4015815,-122.7459663
BOFA,211 Victory Road,Winchester,VA,39.1387059,-78.1366437
BOGA,Tv 93 #51-98 Bodega 1 Y 2,Bogota,DC,4.686192,-74.121356
BOGB,Cl 100 # 10 53,Bogota,DC,4.6822103,-74.0453999
BOGC,Kr 15 # 92 65,Bogota,DC,4.6765734,-74.0543512
BOGD,Kr10 #26 33,Bogota,DC,4.628716,-74.070437
BOGE,Cl 26 #106-39,Bogota,DC,4.692876,-74.136443
BOGF,Kr 7 # 113 43 Local 111,Bogota,DC,4.6921015,-74.0340649
BOGPC,Av Cl 26 #106-87 Bodega 1,Bogota,DC,4.6929247,-74.1364215
BOGR,Av Cl 26 #106-87 Bodega 1,Bogota,DC,4.6929247,-74.1364215
BOIA,2622 Lockheed Lane,Boise,ID,43.5664038,-116.2169027
BOMA,"S-86, Ibi House, Chimatpada",Mumbai,MH,19.1032313,72.8794437
BOMBD,"Parmeshwari Center,",Mumbai,MH,19.1699069,72.9421145
BOMBH,"C/O Ndr Warehouse,",Mumbai,MH,19.2495319,73.052682
BOMCL,"S-86, Ibi House, Chimatpada",Mumbai,MH,19.1032313,72.8794437
BOMWL,Abinandhan Apartment Gr Flr,Mumbai,MH,19.2433749,72.8608748
BOSR,142 Harborside Drive,East Boston,MA,42.3580438,-71.0235501
BOSRT,Logan International Airport,East Boston,MA,42.3656132,-71.0095602
BPAA,510 Stewart Avenue,Garden City,NY,40.729166,-73.6195265
BPLA,,,,,
BPXA,No.18 Shuang Yang Road,Beijing,,39.8106969,116.5250148
BQKA,1012 Commercial Drive,Brunswick,GA,31.2295346,-81.528874
BQNRT,Borinquen Airport Hanger 571,Aguadilla,PR,18.4959211,-67.1363477
BRDA,1123 Madison Street,Brainerd,MN,46.3341152,-94.1934293
BRYA,130 Howell Drive,Elizabethtown,KY,37.7137312,-85.826734
BTFA,3433 West 2400 South,West Valley,UT,40.7175131,-111.9754905
BTMA,125 Basin Creek Road,Butte,MT,45.9266854,-112.5109645
BTVA,921 Marshall Avenue,Williston,VT,44.4455628,-73.1330599
BUEA,Piedrabuena 3680,Buenos Aires,BA,34.675729,-58.490022
BUEC,Av Cabildo 1559,Buenos Aires,BA,-34.5663415,-58.4536831
BUEE,Ave Libertador 14368,Martinez,BA,-34.48014,-58.493106
BUFA,299 Cayuga Road,Cheektowaga,NY,42.9396308,-78.7447787
BUFRT,271 Cayuga Road,Cheektowaga,NY,42.9366384,-78.7459681
BURRT,4511a Empire Blvd Hangar 4,Burbank,CA,34.1944951,-118.3618507
BWDA,Highway 183 North,Brownwood,TX,31.7413356,-98.9663096
BWGA,2731 Griffin Drive,Bowling Green,KY,36.957857,-86.4910242
BWIA,719 North Hammonds Ferry Rd,Linthicum Heights,MD,39.2229777,-76.6656867
BWIRT,Cargo Building F,Baltimore,MD,39.186122,-76.668664
BXAA,215 Park Place,Covington,LA,30.4447761,-90.092527
BZNA,395 Airport Road,Belgrade,MT,45.766749,-111.1463366
CADA,1555 Hanthorn,Cadillac,MI,44.276649,-85.4037585
CAER,3525 Air Commerce Drive,West Columbia,SC,33.9468475,-81.1378251
CANA,No 393 Zhongshan Ave,Guangzhou,,23.1308667,113.366809
CAOA,1505 Terminal Drive,Carlsbad,NM,32.3455897,-104.2548841
CBEA,1313 Lexington Avenue,Cumberland,MD,39.6272993,-78.7736292
CDCA,1305 North Airport Road,Cedar City,UT,37.6992477,-113.0900863
CECA,300 Rupert Drive,Crescent City,CA,41.772196,-124.2395765
CGHA,Rua Joao Alfredo 235,Sao Paulo,SP,23.6578948,-46.7039384
CGIA,2078 Southern Expressway,Cape Girardeau,MO,37.2822364,-89.5530575
CGOA,#168 Disan St.,Zhengzhou,,34.7422909,113.3829899
CHAA,6023 Century Oaks Drive,Chattanooga,TN,35.0786674,-85.1855207
CHAR,150 Honest Street,Chattanooga,TN,35.0216185,-85.2039964
CHOA,1122 Stoney Ridge Road,Charlottesville,VA,38.0052978,-78.5016227
CHSA,1892 Anfield Road,North Charleston,SC,32.9070668,-80.018902
CIDA,3601 Beech Way Southwest,Cedar Rapids,IA,41.8880267,-91.7228397
CIFA,"19 Hejing Road, Dongsha",Guangzhou,,23.055871,113.238045
CIUA,4059 West M80,Kincheloe,MI,46.259391,-84.4502349
CKBA,801-A Main Street,Bridgeport,WV,39.2814982,-80.2673596
CKBSC,9 11th Street,Elkins,WV,38.9210157,-79.8573372
CKVA,1750 Jardco Drive,Clarksville,TN,36.5548619,-87.330588
CLA,,,,,
CLDA,2495 Faraday Avenue,Carlsbad,CA,33.1354599,-117.2712577
CLERT,17831 Englewood Drive,Middleburg Heights,OH,41.3806381,-81.8291993
CLLA,3205 Longmire Drive,College Station,TX,30.5872662,-96.2914495
CLMA,1402-I Fairchild Intl Airport,Port Angeles,WA,48.1161755,-123.4949353
CLOA,Kr 35 # 11-69 Zona Industrial,Cali,VC,3.503764,-76.516312
CLOB,Av 6 Norte # 37bn 122,Cali,VC,3.47697,-76.526074
CLOC,Cl 13 #65c 34,Cali,VC,3.398432,-76.538018
CLTR,4831-4850 Express Drive,Charlotte,NC,35.2100144,-80.9448569
CLUA,1771 Kenholt Drive,Columbus,IN,39.2294961,-85.9404157
CMA,,,,,
CMHA,2850 International Street,Columbus,OH,40.0114897,-83.132492
CMIA,2007 Federal Way,Urbana,IL,40.1332784,-88.2293647
CMJA,"#10, Ln120, Sec 2, Chang An Rd",Taoyuan District,,24.9889825,121.3143477
CMXA,20 Airport Road,Calumet,MI,47.1691312,-88.4964729
CNFA,Ave Do Contorno 5795 B Carmo,Belo Horizonte,MG,-19.9399442,-43.9336187
COEA,3832 North Schreiber Way,Coeur D Alene,ID,47.7133016,-116.8064998
COIA,2205 West Highway 520,Cocoa,FL,28.3550197,-80.7732727
CORA,Dean Funes 720,Cordoba,CB,31.4130127,-64.1960713
COSA,5010 Centennial Boulevard,Colorado Springs,CO,38.9026292,-104.8598467
COSR,1245-A Aviation Way,Colorado Springs,CO,38.813429,-104.7237784
COUA,1714 Burlington Street,Columbia,MO,38.9699012,-92.3107181
CPQA,Rua Fioravante Mancino 1560,Sumare,SP,-22.8063928,-47.2495059
CPRA,364 Circle Drive,Casper,WY,42.8545942,-106.3404278
CPRR,8094 Fuller Street,Casper,WY,42.9001589,-106.4627454
CPSA,2735 Chouteau Avenue,St. Louis,MO,38.6233625,-90.223797
CRWA,1206 Greenbrier Street,Charleston,WV,38.3588048,-81.5943121
CRXA,3003 Tecumseh Road,Corinth,MS,34.9042033,-88.5208719
CSGA,4470 Warm Springs Road,Columbus,GA,32.5211325,-84.9189854
CSNA,3691 Research Way,Carson City,NV,39.1920771,-119.7529814
CSVA,2221 West Jackson Avenue,Cookeville,TN,36.1711735,-85.541603
CTGA,Cl 6 # 3-24 Local 3,Cartagena,BL,10.3996989,-75.5568677
CTUA,#187 Great Wall Road,Chengdu,,30.6588188,103.7953458
CTXA,404 Fieldcrest Drive,Elmsford,NY,41.0721776,-73.8227732
CUCA,Av 0 # 16-95,Cucuta,NS,7.8809745,-72.497238
CURA,169 Schottegatweg Oost,Willemstad,,12.117735,-68.903425
CVAA,401 Painterville Road,Hunker,PA,40.2092181,-79.6112354
CVGRT,2800 Earhart Court,Hebron,KY,39.082471,-84.6669377
CVNA,700 Town Gate Plaza,Clovis,NM,34.4165927,-103.2328687
CVOA,201 Southwest Airport Road,Corvallis,OR,44.5085659,-123.2731183
CWAA,910 S Parkview Circle,Mosinee,WI,44.7891468,-89.6703644
CYSA,3601 Evans Avenue,Cheyenne,WY,41.1488786,-104.820063
CZAB,Calzada Ignacio Zaragoza # 84,Mexico,DF,19.4256791,-99.1085733
CZAC,Av Division Del Norte # 3428,Mexico,DF,19.3284009,-99.1440037
CZAG,Avenida Tlahuac Num. 4746,Mexico,DF,19.3043218,-99.0607013
CZAL,Calzada Ignacio Zaragoza # 200,Mexico,DF,19.430247,-99.1144297
CZAM,C Ignacio Zaragoza # 2929,Mexico,DF,19.3649612,-99.0089382
CZAN,Ave Revolucion Num.1140-A,Mexico,DF,19.3652785,-99.1908609
CZAQ,Avenida Patriotismo # 204-C,Mexico,DF,19.3972385,-99.1832902
CZAV,Czd E Iztapalapa # 2600,Mexico,DF,19.341994,-99.055297
CZAW,#N/A,,,,
CZAX,Via Morelos Num. 178-G,Ecatepec,EM,19.5776974,-99.0442938
DA,,,,,
DABA,833 Bill France Boulevard,Daytona Beach,FL,29.2122179,-81.0754121
DAGA,12212 Industrial Boulevard,Victorville,CA,34.4729424,-117.2855067
DALA,5000 Hanson Drive,Irving,TX,32.8818167,-97.0016737
DALHQ,,,,,
DANA,295 Charming Road,Danville,VA,36.6154059,-79.5798284
DAYRT,10340 Freight Road,Vandalia,OH,39.8982831,-84.2312129
DBQA,370 Harrison Street,Dubuque,IA,42.488734,-90.6645969
DBXA,,,,,
DCAA,1501 Eckington Place Northeast,Washington,DC,38.9099069,-77.0062748
DCGA,Al Qusais Industrial 1,Dubai,DU,25.2869108,55.3776654
DDA,,,,,
DENA,9950 East 40th Avenue,Denver,CO,39.7727448,-104.8759273
DENRT,26900 East 75th Avenue,Denver,CO,39.8316005,-104.6767178
DEOHQ,,,,,
DETRT,34800 Goddard Road,Romulus,MI,42.224395,-83.3816947
DFWR,3001 North Airfield,Dallas,TX,32.9144665,-97.0205325
DFWRT,2967 North Airfield Drive,Dallas,TX,32.9156525,-97.0205257
DGA,,,,,
DGMA,"Fu Zhushan Mgt Zone,Liaobu Tow",Dongguan,,23.0113791,113.8577001
DHNA,134 Woodburn Drive,Dothan,AL,31.2298547,-85.4579979
DIKA,119 Osborn Drive,Dickinson,ND,46.8930655,-102.7893108
DMOA,1511 Waterloo Drive,Sedalia,MO,38.7255788,-93.2480199
DNEA,1200 Capital Avenue,Plano,TX,33.0107647,-96.6993361
DNNA,2930 Dug Gap Road,Dalton,GA,34.6913939,-85.0025492
DPAA,500 Commerce Street,Aurora,IL,41.7655882,-88.2335495
DROA,115 Bodo Drive,Durango,CO,37.2463886,-107.877931
DRTA,900 W 15th Street,Del Rio,TX,29.3749133,-100.9232745
DSMA,700 South West 9th Street,Des Moines,IA,41.5743914,-93.6268978
DSMR,3023 Army Post Road,Des Moines,IA,41.5216496,-93.6564568
DTWRT,11401 Metro Airport Center Dr,Romulus,MI,42.220101,-83.3810442
DUA,,,,,
DUJA,3462 Clearfield Woodland Hwy,Mineral Springs,PA,40.99975,-78.3610057
DURT,,,,,
DVRT,,,,,
DVTA,724 North Industrial Drive #4b,Camp Verde,AZ,34.5804697,-111.8833842
DWHHQ,,,,,
DWSA,10445 Tradeport Drive,Orlando,FL,28.4160473,-81.3375239
EARA,3982 Imperial Avenue,Kearney,NE,40.7147559,-98.990751
EATA,3790 Airport Way,East Wenatchee,WA,47.4027356,-120.2064874
EAUA,930 Malden Avenue,Eau Claire,WI,44.825295,-91.4694503
ECA,,,,,
EGEA,209 Brian Avenue,Silverthorne,CO,39.6279588,-106.0773665
EHTA,100 Old County Circle,Stratford,CT,41.1703102,-73.1525462
EISA,Federal Express Tortola,Road Town,,18.425525,-64.624363
EKAA,1605 Short Street,Eureka,CA,40.792568,-124.1821413
EKOA,2295 Last Chance,Elko,NV,40.8391309,-115.7374952
ELDA,1908 West Hillsboro Street,El Dorado,AR,33.2081908,-92.6910239
ELMA,358 Sing Sing Road,Horseheads,NY,42.1670497,-76.8960378
ELPR,501 George Perry Boulevard,El Paso,TX,31.8191692,-106.3676619
ENAA,427 North Willow Avenue,Kenai,AK,60.5676972,-151.2449414
ERIA,3017 West 17th Street,Erie,PA,42.0923171,-80.1487105
ESFA,850 North Bolton Avenue,Alexandria,LA,31.3162292,-92.4692872
EVAA,1717 Sidney Baker,Kerrville,TX,30.0619223,-99.1252143
EVVA,6530 Interchange Road North,Evansville,IN,37.998126,-87.4738071
EWNA,1515 Airport Road,New Bern,NC,35.0724843,-77.040507
EWRRT,630-640 Dowd Avenue,Elizabeth,NJ,40.6685863,-74.1914058
EYWA,3553 South Roosevelt Boulevard,Key West,FL,24.5537805,-81.7559157
EZEPC,Aeropuerto Intl Ezeiza,Ezeiza,BA,-34.8150044,-58.8149798
EZERT,Tca Warehouse Courier Sector,Buenos Aires,BA,-34.6154611,-58.5733849
FAIA,6059 Old Airport Way,Fairbanks,AK,64.826209,-147.8539348
FAIRT,6059 Old Airport Way,Fairbanks,AK,64.826209,-147.8539348
FARA,4110 Second Avenue South,Fargo,ND,46.8736375,-96.8509835
FARR,3847 31st Street North,Fargo,ND,46.9305075,-96.823662
FATA,3225 Villa Avenue,Clovis,CA,36.7920243,-119.7149293
FATRT,3225 Villa Avenue,Clovis,CA,36.7920243,-119.7149293
FBTA,51 20th Street,Brooklyn,NY,40.6652601,-74.000329
FCAA,2033 Us Highway 2 East,Kalispell,MT,48.2168618,-114.2788946
FDFA,"Espace Aeroservices, Aeroport",Fort De France,,14.527721,-61.1599473
FFTA,1430 Jamike Avenue,Erlanger,KY,39.0430635,-84.6318659
FIDA,20 Pine Street,New York,NY,40.7075705,-74.0118653
FILA,1348 South 1500 East,Vernal,UT,40.4363933,-109.502318
FLGA,2000 Woodlands Village Blvd,Flagstaff,AZ,35.1828358,-111.6698915
FLLR,1000 Southwest 34th Street,Fort Lauderdale,FL,26.080534,-80.1574234
FLLRT,2600 Southwest 39th Street,Hollywood,FL,26.0728743,-80.178361
FLOA,709 West Lucas Street,Florence,SC,34.2159342,-79.7791222
FMEA,44 Industrial Park Drive,Waldorf,MD,38.6147118,-76.9142983
FMNA,1514 West Main Street,Farmington,NM,36.7319968,-108.2320715
FNLA,2205 Central Avenue,Boulder,CO,40.0216846,-105.2212157
FNTR,3521 West Bristol Road,Flint,MI,42.9721139,-83.7540402
FOKA,25 West 45th Street,New York,NY,40.7561404,-73.9828739
FPOA,Woodstock And Bank Lane,Freeport,,26.52847,-78.69658
FRGA,270 South Service Road,Melville,NY,40.7787603,-73.4257347
FSDR,47 North John Orr Drive,Sioux Falls,SD,43.5899228,-96.7333116
FSMA,4600 South Phoenix Street,Fort Smith,AR,35.3375373,-94.3842308
FTCA,3800 Weicker Drive,Fort Collins,CO,40.5837146,-105.007469
FTYWK,2 Corporate Blvd NE,Atlanta,GA,33.838529,-84.3222966
FUGA,"Warehouse B,#628 Sui Ning Rd",Shanghai,,31.2310802,121.4502475
FULA,2500 Kimberly Avenue,Fullerton,CA,33.8627681,-117.8870831
FWAR,12602 Global Drive,Yoder,IN,40.9685625,-85.2176568
FYMA,1975 Ridgecrest Drive,Columbia,TN,35.673085,-87.0125224
FYVA,480a East Robinson Avenue,Springdale,AR,36.1676717,-94.1298177
GADA,108 Rainbow Industrial Blvd,Rainbow City,AL,33.9812549,-86.0644687
GCCA,814 Madison Street,Gillette,WY,44.2734054,-105.494162
GCKA,335 North Air Links Road,Garden City,KS,37.9637184,-100.8219301
GCMA,321 Dorcy Drive,George Town,,19.2984494,-81.3699978
GCMB,31 Shedden Road,Grand Cayman,,19.2943897,-81.3841765
GCYA,3752 East Morris Boulevard,Morristown,TN,36.2307576,-83.2460256
GDLS,Av Lopez Sur 1450 Local L08 Pl,Tlajomulco De Zuniga,JA,20.589065,-103.4475842
GEGR,8404 West Aviation Avenue,Spokane,WA,47.6295671,-117.5325368
GFKA,1475 North 73rd Street,Grand Forks,ND,47.9344677,-97.1409439
GGGA,1300 East Whaley Street,Longview,TX,32.4976042,-94.7250105
GIFA,16012 Flight Path Drive,Brooksville,FL,28.4784142,-82.4685795
GIGRT,"R. Nair, 135",Rio De Janeiro,RJ,-22.8367883,-43.2630283
GJTA,2796 Justice Drive,Grand Junction,CO,39.1244707,-108.5376989
GJTR,806 Eagle Drive,Grand Junction,CO,39.1219785,-108.5279764
GLHA,103 Karen Street,Greenville,MS,33.4430047,-91.0462145
GLRA,1099 Aero Drive,Gaylord,MI,45.0165858,-84.6931049
GMVA,320 Route 17 South,Mahwah,NJ,41.0874438,-74.1566112
GNDA,Lagoon Road,St. George's,,12.0466549,-61.7493117
GRBA,1331 Waube Lane,Green Bay,WI,44.4732658,-88.1026877
GRIA,3900 Sky Park Road,Grand Island,NE,40.972473,-98.3234806
GRRR,6450 Air Cargo Road,Grand Rapids,MI,42.8847914,-85.5084953
GSORT,6231 World Wide Drive,Greensboro,NC,36.1207609,-79.9269446
GSPR,3080 Gateway Drive,Greer,SC,34.9066866,-82.2073496
GSXA,6035 Old Oak Ridge Road,Greensboro,NC,36.1179493,-79.9220693
GTFA,1400 Air Cargo Drive,Great Falls,MT,47.4907043,-111.3607884
GTRA,4871 South Frontage Road,Columbus,MS,33.4798317,-88.5751024
GUPA,2111 West Highway 66,Gallup,NM,35.5152502,-108.7821011
GVTA,3242 Herrmann Drive,Garland,TX,32.8924537,-96.6815384
GWSA,240 Marmot Lane,Eagle,CO,39.6657729,-106.8118685
GXYA,1255 H Street,Greeley,CO,40.4471603,-104.7014762
GYNA,Rua R 14 Quadra 15,Aparecida De Goiania,GO,-16.7955467,-49.349774
HAA,,,,,
HBGA,126 Mayfair Road,Hattiesburg,MS,31.3205165,-89.3654103
HGHA,#2 Xi Yuan Ba Road,Hangzhou,,30.3154647,120.0640076
HHHA,20 Hunter Road,Hilton Head Island,SC,32.2216721,-80.7030549
HHRA,12600 South Prairie Avenue,Hawthorne,CA,33.9187011,-118.3427168
HIA,,,,,
HIOA,6505 Southwest Rosewood Street,Lake Oswego,OR,45.4015815,-122.7459663
HKACA,,,,,
HLGA,120 North River Road,Wheeling,WV,40.0872373,-80.7247998
HLNA,3171 Bozeman Avenue,Helena,MT,46.5997506,-111.9810716
HNBA,7105 West Morris Street,Indianapolis,IN,39.7488769,-86.2869924
HNLA,129 Pohakulana Place,Honolulu,HI,21.3167777,-157.9178282
HNLRT,110 Ke'ehi Place,Honolulu,HI,21.3175392,-157.9177358
HOBA,210 West Navajo,Hobbs,NM,32.7408454,-103.1396868
HOMA,3758 Faa Road,Homer,AK,59.6438308,-151.4936096
HOTA,116 Redstone Lane,Hot Springs,AR,34.5158821,-93.032211
HRLA,2824 Airport Drive,Harlingen,TX,26.2193365,-97.6648414
HSNA,B13 #219 Tie Shan Road,Shanghai,,31.3798627,121.4574049
HSVA,490 Production Avenue,Madison,AL,34.6731472,-86.7844327
HSVRT,2852 North Air Cargo Boulevard,Huntsville,AL,34.6436044,-86.7559887
HTOA,North Hangar Road,Jamaica,NY,40.6585711,-73.7832592
HTSR,1457 Airport Rd Unit 1 Box 16,Huntington,WV,38.3744061,-82.5625978
HUFA,5300 East Margaret Avenue,Terre Haute,IN,39.434142,-87.3386597
HUMA,5064 Highway 311,Houma,LA,29.5975112,-90.7592573
HWOA,2600 Southwest 39th Street,,,,
HYAA,60 Ansel Hallet Road,West Yarmouth,MA,41.68228,-70.2604142
HYLA,1121 East 27th,Hays,KS,38.8854798,-99.3167482
IADRT,23723 Air Freight Lane #100,Dulles,VA,38.9603722,-77.4548736
IAHRT,14545 Heathrow Forrest,Houston,TX,29.9289179,-95.3291976
IBEA,Kr 20# 90-04,Ibague,TO,4.4122862,-75.2568182
ICR,,,,,
ICRT,,,,,
ICTA,1530 South Hoover,Wichita,KS,37.6670242,-97.4087109
ICTR,2073 Air Cargo Road,Wichita,KS,37.6593934,-97.4328832
IDA,,,,,
IDAA,2087 Federal Way,Idaho Falls,ID,43.5148952,-112.0670371
IFPA,2550 Laughlin View Drive,Bullhead City,AZ,35.1561026,-114.5757683
IKBA,205 Industrial Park Drive,Boone,NC,36.2221543,-81.6491596
IKKA,399 Eastgate Industrial Pkwy,Kankakee,IL,41.1223178,-87.8294554
IMMA,1485 Railhead Boulevard,Naples,FL,26.3140702,-81.7898618
IMTA,675 East Boulevard,Kingsford,MI,45.8012219,-88.0786957
INDRT,3825 Hanna Circle,Indianapolis,IN,39.7110483,-86.2582219
IPLA,2451 Access Way,Imperial,CA,32.8284888,-115.5753855
IPTA,300 Fairfield Road,Montoursville,PA,41.254492,-76.8997577
ISMA,6900 Presidents Drive,Orlando,FL,28.4630363,-81.4239918
ISNA,8923 Oil Ave,Williston,ND,48.231628,-103.6148238
ISPA,140 Comac Street,Ronkonkoma,NY,40.7911356,-73.1432344
ITHA,747 Warren Road,Ithaca,NY,42.4892957,-76.4688905
ITOA,110 Operations Street,Hilo,HI,19.7167312,-155.0635522
IWA,,,,,
IXDA,14635 West 99th Street,Lenexa,KS,38.9482933,-94.7583237
IYKA,737 West Ridgecrest Boulevard,Ridgecrest,CA,35.6213863,-117.6876102
JACA,1035 South Highway 89,Jackson,WY,43.4651741,-110.7967132
JACA2ND,,,,,
JANRT,110 Metroplex Boulevard,Pearl,MS,32.28762,-90.0620498
JAXR,2260 Cole Flyer Road,Jacksonville,FL,30.486422,-81.6847041
JBKA,1425 Corporate Center Dr,San Diego,CA,32.5723318,-117.0061019
JBRA,2712 Phillips Drive,Jonesboro,AR,35.809854,-90.6739343
JBSA,8455 Pardee Drive,Oakland,CA,37.7312044,-122.2068566
JDTA,2275 Walnut Street,Roseville,MN,45.0106735,-93.2084801
JEFA,303 Norman Drive,Jefferson City,MO,38.5872824,-92.2084102
JFKRT,Cargo Building 262,Jamaica,NY,40.6607329,-73.7847676
JGXA,2000 North San Fernando Road,Los Angeles,CA,34.1009348,-118.2400492
JHMA,7880 Kapalua Airport,Lahaina,HI,20.9622161,-156.6776081
JHWA,3201 Airport Drive,Jamestown,NY,42.1522425,-79.2680058
JLNA,3530 Industrial Drive,Joplin,MO,37.1225353,-94.4736947
JNUA,9203 Bonnett Way,Juneau,AK,58.3613245,-134.587774
JRAA,560 West 42nd Street,New York,NY,40.7604234,-74.0003479
JRBA,621 West 48th Street,New York,NY,40.7653725,-73.9986503
JREA,670 East 132nd Street,Bronx,NY,40.7995691,-73.9192491
JSLA,100 Redneck Avenue,Moonachie,NJ,40.842356,-74.0555177
JSNA,21300 Vanowen Street,Canoga Park,CA,34.1932264,-118.5984837
JSTA,136 Allenbill Drive,Johnstown,PA,40.2862292,-78.8363596
JVIHQ,,,,,
JVLA,1727 Plainfield Avenue,Janesville,WI,42.7198477,-89.0036136
JXNA,1051 Hurst Lane,Jackson,MI,42.2503223,-84.4799078
KCAA,No. 97 San Lin Road,Shanghai,,31.1390166,121.4930873
KHHA,6 Yung Hone Ln Renwu Dist,Kaohsiung City,,21.9931008,117.7363176
KINA,40 Half-Way-Tree Road,Kingston,NY,17.9997665,-76.7926845
KIND,40 Duke Street,Kingston,NY,17.9687683,-76.7929299
KNTA,400 West Second Street,West Plains,MO,36.7332208,-91.858441
KOAA,73-220 Uu Street,Kailua Kona,HI,19.7316889,-156.043684
KOWA,No.201 Chunyun Road,Shanghai,,31.2667825,121.6680463
KSA,,,,,
KTNA,6841 N Tongass Hwy,Ketchikan,AK,55.4066383,-131.7196067
KWA,,,,,
L4R,,,,,
LAA,,,,,
LAFA,3524 Crouch Street,Lafayette,IN,40.4239688,-86.8545859
LASRT,5935 Surrey Street,Las Vegas,NV,36.0824819,-115.1269241
LAWA,1815 South West 11th Street,Lawton,OK,34.587149,-98.4074617
LAXR,5927 West Imperial Highway,Los Angeles,CA,33.9333796,-118.3891052
LAXRT,201 West Manville Street,Compton,CA,33.870771,-118.2238494
LBBA,7802 North Cedar,Lubbock,TX,33.6732248,-101.8361706
LBBR,7802 North Cedar,Lubbock,TX,33.6732248,-101.8361706
LBEA,5 Commerce Drive,Plum,PA,40.4974768,-79.8392399
LBFA,343 East North Lake Road,North Platte,NE,41.047584,-100.7619196
LCE,,,,,
LCG,,,,,
LCHA,430 Clarence Street,Lake Charles,LA,30.2230678,-93.2183736
LCIA,12 Artisan Court,Gilford,NH,43.5754869,-71.4369917
LCKRT,7066 Cargo Road,Columbus,OH,39.8233005,-82.9279738
LCO,,,,,
LCP,,,,,
LDJA,80 Raritan Center Parkway,Edison,NJ,40.5211956,-74.3380244
LEBA,41 North Labombard Road,Lebanon,NH,43.6567721,-72.2429788
LEEA,121 Satellite Court,Leesburg,FL,28.8129043,-81.92647
LEXA,2000 Mercer Road,Lexington,KY,38.0787026,-84.5390695
LFIA,8800 Studley Road,Mechanicsville,VA,37.6469193,-77.4033213
LFKA,7815 Us Hwy 59 North,Nacogdoches,TX,31.6771963,-94.6735148
LFTR,2201 SE Evangeline Thruway,Lafayette,LA,30.1975249,-91.9997302
LGAA,58-95 Maurice Avenue,Maspeth,NY,40.725787,-73.9126352
LGBA,2451 Palm Drive,Signal Hill,CA,33.8024145,-118.1597133
LGBR,3605 Spring Street,Long Beach,CA,33.8110597,-118.1520342
LGCA,1619 Whitesville Road,Lagrange,GA,33.012212,-85.0305571
LGUA,680 West 200 South,Logan,UT,41.727564,-111.8533647
LHNA,No.1 Lane21 Guang Fu North Rd,Hukou Township,,24.896405,121.0223282
LHR,,,,,
LHUA,2145 North Kiowa Boulevard,Lake Havasu City,AZ,34.5074142,-114.3423209
LIHA,101 Ahukini Road,Lihue,HI,21.981517,-159.3471884
LITA,1500 Westpark Drive,Little Rock,AR,34.738787,-92.3545019
LITRT,10620 Col Glenn Road,Little Rock,AR,34.713424,-92.3970613
LJCA,234 Thornsberry Drive,Langley,KY,37.5469313,-82.7766568
LJNA,4901 South Highway 288b,Richwood,TX,29.0799827,-95.4147217
LKSA,5200 West Greens Road,Houston,TX,29.9469542,-95.4984868
LLXA,2176 Portland Street,Saint Johnsbury,VT,44.42741,-71.9788728
LLYA,2400 Richmond Terrace,Staten Island,NY,40.6388859,-74.1435262
LMTA,6601 Rand Way,Klamath Falls,OR,42.1590218,-121.746228
LOGA,960-4 Industrial Way,Longview,WA,46.1164907,-122.9403231
LOST,,,,,
LOUA,1126 West Breckinridge Street,Louisville,KY,38.2424169,-85.7735202
LOZA,111 Lagoon Trail,London,KY,37.1081483,-84.0697623
LRDA,6552 Bob Bullock Loop,Laredo,TX,27.5479701,-99.4550565
LRUA,98 Westgate Street,Las Cruces,NM,32.2997385,-106.8095139
LSEA,2974 Airport Road,La Crosse,WI,43.8766776,-91.2682011
LUFA,4475 North 43rd Avenue,Phoenix,AZ,33.5008004,-112.1529414
LUKA,2800 Earhart Court,Hebron,KY,39.082471,-84.6669377
LVKA,7275 Johnson Drive,Pleasanton,CA,37.6910146,-121.9187432
LWSA,420 Burrell Avenue,Lewiston,ID,46.3765408,-117.0122291
LWSG,,,,,
LWSSC,2601 Airport Road,Pullman,WA,46.7485065,-117.0996405
LYHA,3321 Oddfellows Road,Lynchburg,VA,37.3823506,-79.1624213
MADA,Calle La Mancha #3,Coslada,,40.4310588,-3.5485994
MAFA,3600 County Road 1276 South,Midland,TX,31.9236009,-102.2139817
MAZA,Borinquen Airport Hangar 404,Aguadilla,PR,18.4959211,-67.1363477
MCEA,95 Macready Drive Circle,Merced,CA,37.2898365,-120.5177805
MCIRT,1210 Mexico City Avenue,Kansas City,MO,39.3219328,-94.7176058
MCOR,10445 Tradeport Drive,Orlando,FL,28.4160473,-81.3375239
MCORT,10445 Tradeport Drive,Orlando,FL,28.4160473,-81.3375239
MCWA,Highway 122 East,Clear Lake,IA,43.1472655,-93.3270809
MDEA,Kr 46 #32-74 San Diego Bodega3,Medellin,AN,6.2443695,-75.6512526
MDEB,Kr 48 # 25aa Sur 70 Local 10,Medellin,AN,6.2571709,-75.6327399
MDEC,Cl 10 # 41a 16,Medellin,AN,6.2101654,-75.5712271
MDER,Kr 46 #32-74,Medellin,AN,6.2378108,-75.5949355
MDQA,Osvaldo Cruz 3201,Buenos Aires,BA,-34.6554554,-58.3946321
MDTR,100 Olmsted Dr,Middletown,PA,40.1980699,-76.7443655
MDTRT,1400 Quarry Road,Harrisburg,PA,40.2256512,-76.8017953
MDZA,Osvaldo Cruz 3201,Buenos Aires,BA,-34.6554554,-58.3946321
MEIA,5203 Arundel Road,Meridian,MS,32.3501373,-88.732454
MEJA,60 Gibb Road,Franklin,PA,41.4039214,-79.8036439
MEMHQ,,,,,
MEXC,Av Paseo De La Reforma #308,Mexico,DF,19.4272754,-99.1680185
MEXF,Blvd Ma Camacho #1840 Satelite,Naucalpan,EM,19.5016127,-99.2387032
MEXM,Av Insurgentes Sur 1756 Loc A,Mexico,DF,19.3587785,-99.1859314
MEXN,Newton #257 Local 1,Chapultepec,EM,19.4279264,-99.1986221
MEXO,Francisco Sarabia #17,Mexico,DF,19.4456209,-99.0787796
MEXQ,Ave J Lopez Portillo Ave Cuaht,Ecatepec,EM,19.5720072,-99.1460855
MEXS,"Av Central Mz 11 Lt 7, 8 Y 9 G",Ecatepec,EM,19.5265776,-99.0326028
MEXT,,,,,
MEXW,,,,,
MEXX,,,,,
MFDA,65 Paragon Parkway,Mansfield,OH,40.7979579,-82.5178128
MGEA,6650 Corners Industrial Court,Norcross,GA,33.9407656,-84.2541817
MGUZ,,,,,
MGWA,56 Distributor Drive,Morgantown,WV,39.607338,-79.9592155
MHKA,809 M Levee Drive,Manhattan,KS,39.1928079,-96.5452729
MHRA,11140 Sun Center Drive,Rancho Cordova,CA,38.5957556,-121.2701029
MHTRT,26 Commerce Avenue,Londonderry,NH,42.9233189,-71.4424852
MIAX,6100 Northwest 36th Street,Miami,FL,25.8060384,-80.2985644
MICA,2825 Cargo Road,Minneapolis,MN,44.8831766,-93.2344196
MIDA,Calle 96 No771 C X 109c Y 107,Merida,YU,20.9803289,-89.7730065
MIEA,3801 South Cowan Road,Muncie,IN,40.1589803,-85.4079016
MJXA,1000 Bennett Boulevard,Lakewood,NJ,40.0580538,-74.1794868
MKCA,6098 Front Street,Kansas City,MO,39.1309287,-94.5113035
MKER,201 Air Cargo Way,Milwaukee,WI,42.9440322,-87.9146017
MKGA,5832 Grand Haven Road,Muskegon,MI,43.1464269,-86.2221066
MKLA,2125 Express Drive,Jackson,TN,35.6689378,-88.8913915
MKTA,1121 Cross Street,North Mankato,MN,44.1824702,-94.0137151
MLSA,1148 First Avenue North,Billings,MT,45.7913134,-108.4869426
MLUA,1111 Oliver Road,Monroe,LA,32.5242513,-92.1074328
MMIA,300 20th Street Southeast,Cleveland,TN,35.1413557,-84.8845904
MMRA,2001 West Howard Lane,Austin,TX,30.4294507,-97.6853339
MNNA,7066 Cargo Road,West Yarmouth,MA,41.68228,-70.2604142
MOTA,515 Airport Road,Minot,ND,48.2553038,-101.2876193
MPBA,200 South Miami Avenue,Miami,FL,25.7723758,-80.1963643
MPJA,1400 Ew Martin Drive,Conway,AR,35.0612759,-92.4111728
MPOA,,,,,
MPRA,924 East 4th Street,Hutchinson,KS,38.0579098,-97.9133555
MPZA,1505 East Monroe Street,Mt. Pleasant,IA,40.9658372,-91.5331135
MQIA,1021 Driftwood Drive,Manteo,NC,35.9194188,-75.6907679
MQTA,885 County Road 480,Marquette,MI,46.4639652,-87.4249576
MQYA,127 Athens Way,Nashville,TN,36.1972609,-86.8027234
MRYA,1 Lower Ragsdale Drive,Monterey,CA,36.5778603,-121.8208609
MSOA,4465 Chudy Way,Missoula,MT,46.9132362,-114.0797901
MSPA,2825 Cargo Road,Minneapolis,MN,44.8831766,-93.2344196
MSPR,,,,,
MSPRT,2825 Cargo Road,Minneapolis,MN,44.8831766,-93.2344196
MSYA,6321 Humphreys Road,Harahan,LA,29.9485127,-90.2366182
MSYR,300 Middle Access Road,Kenner,LA,29.9890842,-90.2667667
MSYWK,1330 Greengate,Covington,LA,30.4471805,-90.0872996
MTHA,9000 Overseas Highway,Marathon,FL,24.7250016,-81.0535684
MTJA,1640 North Townsend Avenue,Montrose,CO,38.4937768,-107.895494
MTOA,910 West Wabash Avenue,Effingham,IL,39.1134821,-88.5559257
MUGB,Norte 45 Loc 2 Fracc Ind Valle,Mexico,DF,19.3911668,-99.423815
MUGC,Norte 35 Num. 1015,Mexico,DF,19.497276,-99.1554114
MUGG,Clz De Guadalupe 7-15 Cuamatla,Cuautitlan,EM,19.6680483,-99.1995461
MUGI,Sor Juana Periferico,Naucalpan,EM,19.4332555,-99.2272426
MUGK,Rio Danubio Num. 63,Mexico,DF,19.4314919,-99.1707136
MUGO,Jose Maria Izazaga Num. 17-A,Mexico,DF,19.4264458,-99.1431562
MUGP,Av Insurgentes 102-5 Texcacoa,Mexico,DF,19.3998363,-99.2139776
MUGS,Av Oservatorio 501 Las Palmas,Mexico,DF,19.3998363,-99.2139776
MUGW,Jose Lopez Portillo Km2 6.5,Coacalco,EM,19.6345652,-99.1024602
MUGX,Avenida De Los Aztecas Manzana,Mexico,DF,19.5395129,-99.0336498
MUGZ,Barranca Honda San M Obispo,Cuautitlan Izcalli,EM,19.593546,-99.2118068
MUVA,3600 Grays Ferry Avenue,Philadelphia,PA,39.9396545,-75.2046943
MVDA,Av Rivera 3528,Montevideo,,-34.9010124,-56.1397811
MVDRT,Terminal De Cargas/Courier Tcu,Aeropuerto,,-34.843279,-56.0258504
MVYA,15 North Line Road,Edgartown,MA,41.3931017,-70.6069239
MWAA,507 North Fifth Street,Marion,IL,37.7359926,-88.9542734
MWHA,6617 24th Ave NE,Moses Lake,WA,47.1839106,-119.3214613
MWLA,5601 Mark Iv Parkway,Fort Worth,TX,32.8445518,-97.3243111
MYFA,9192 Kearny Villa Court,San Diego,CA,32.8358823,-117.1355577
MYVA,857 Gray Avenue,Yuba City,CA,39.1363408,-121.6313007
MZLB,Av Santander #55 46,Manizales,CL,5.0613725,-75.4938695
MZZA,7250 East 90th Street,Indianapolis,IN,39.9187797,-86.0428237
NASA,Thompson Blvd.,Nassau,,25.0568714,-77.3658067
NASB,Frederick St,"Frederick St, Nassau",,25.0774342,-77.3449918
NASRT,Odyssey Airport Coral Harb Rd,Odyssey Airport Coral Harb Rd,Nassau,25.0293431,-77.458097
NCQA,2049 Franklin Way,"Marietta, ",GA,33.9164006,-84.4938495
NDVA,4720 Eisenhower Avenue,Alexandria,VA,38.802384,-77.1188842
NEVA,Prince Williiams Street,Nevis Island,,17.1377391,-62.6305137
NIPA,7490 Commonwealth Avenue,Jacksonville,FL,30.3401576,-81.7773732
NKGA,2881 Shuang Long Da Road,Nanjing,,31.9529274,118.8228555
NLUF,,,,,
NLUM,,,,,
NLUO,,,,,
NNA,,,,,
NOA,,,,,
NORT,,,,,
NOTA,2275 S Mcdowell Blvd Extension,Petaluma,CA,38.2323383,-122.5920921
NQAA,1885 Appling Road,Cordova,TN,35.1746907,-89.8180062
NRBA,3736 North Salisbury Road,Jacksonville,FL,30.2593261,-81.599705
NRRA,Calle Gildita Esq Lorencita,Carolina,PR,18.4197014,-65.9863165
NYCA,606 West 49th Street,New York,NY,40.7654939,-73.9985978
NYCWK,560 West 42nd Street,New York,NY,40.7604234,-74.0003479
NZJA,7000 Barranca Parkway,Irvine,CA,33.6600136,-117.7668298
NZJRT,7000 Barranca Parkway,Irvine,CA,33.6600136,-117.7668298
OAA,,,,,
OAKRT,9190 Edes Avenue,Oakland,CA,37.7386564,-122.1923804
OAR,,,,,
OBEA,1911-B Memorial Drive,Waycross,GA,31.2036961,-82.3348729
OCFA,285 South West 60th Avenue,Ocala,FL,29.1843787,-82.2201749
OCR,,,,,
ODWA,11674 Higgins Airport Drive,Burlington,WA,48.476075,-122.4209406
OFKA,2507 South 13th Street,Norfolk,NE,41.9983423,-97.427926
OGA,,,,,
OGGA,400 Hana Highway,Kahului,HI,20.8862196,-156.4574173
OILA,Route 60 Cargo Building 2,Pittsburgh,PA,40.5050795,-80.242047
OJCA,10410 Hickman Mills Drive,Kansas City,MO,38.9361416,-94.5318788
OKCA,8601 South I 35 Service Road,Oklahoma City,OK,35.3805673,-97.4984048
OKCR,6300 Air Cargo Road,Oklahoma City,OK,35.4004122,-97.595229
OKKA,1914 Trialon Court,Kokomo,IN,40.5034294,-86.1066647
OLVRT,2617 Democrat Road,Memphis,TN,35.0687095,-89.9801953
OMAA,7130 Q Street,Omaha,NE,41.2062139,-96.0252822
OMART,1810 Fort Court,Omaha,NE,41.308158,-95.9094011
ONPA,120 Southeast 84th Street,Southbeach,OR,44.5753683,-124.067945
ONTA,3371 East Francis Street,Ontario,CA,34.0424665,-117.5813054
ONTR,1801 Avion Avenue,Ontario,CA,34.0523271,-117.6166052
ONTRT,2060 South Wineville,Ontario,CA,34.0376355,-117.5449785
ONXA,Calle 4ta Y Ave 3era France Fi,Colon,,9.3101447,-79.962112
ORDRT,612 North Access Road,Chicago,IL,41.9635836,-87.9165262
ORDWK,2150 East Lake Cook Road,Chicago,IL,42.154221,-87.9154831
ORFA,2600 Ellsmere Avenue,Norfolk,VA,36.8794661,-76.2207842
ORFR,6000 Robin Hood Road,Norfolk,VA,36.8907412,-76.2110805
OSA,,,,,
OTHA,1411 East Airport Way,North Bend,OR,43.4128101,-124.2468079
OVEA,109 Spring Hill Drive,Grass Valley,CA,39.2236411,-121.0447468
OWA,,,,,
OWBA,2200 Ragu Drive,Owensboro,KY,37.7614328,-87.0765951
OXCA,500 Lordship Boulevard,Stratford,CT,41.1703102,-73.1525462
OXRA,3150 North Paseo Mercado,Oxnard,CA,34.2284367,-119.1482423
PAHA,1100 Hc N Mathis Drive,Paducah,KY,37.0946931,-88.6336625
PAR,,,,,
PBIA,7840 Central Industrial Drive,Riviera Beach,FL,26.792337,-80.0960992
PBIR,1475 East Perimeter Road,West Palm Beach,FL,26.6853054,-80.0811815
PDTA,1106 Airport Road,Pendleton,OR,45.68237,-118.8413638
PDXA,6756 Northeast Alderwood Rd,Portland,OR,45.5723523,-122.584883
PDXRT,5159 Northeast Cornfoot Drive,Portland,OR,45.5781268,-122.6123087
PEA,,,,,
PEIA,(Av Simon Bolivar) Kr16#15-21,Dosquebradas,RI,4.8241801,-75.6858564
PEKA,#5 Jiuxian Bridge North Rd,Beijing,,39.982551,116.4822623
PFNA,201 Mosley Drive,Lynn Haven,FL,30.2109201,-85.6500913
PGVA,201 Old River Road,Greenville,NC,35.6310243,-77.3767827
PHLR,King Building Cargo City,Philadelphia,PA,39.8706797,-75.2677142
PHNA,2939 Lapeer Avenue,Port Huron,MI,42.9775489,-82.4610287
PHXR,3002 East Old Tower Road,Phoenix,AZ,33.4247572,-112.0179494
PHXRT,3002 East Old Tower Road,Phoenix,AZ,33.424757,-112.0179494
PIAA,906 South Bosch Road,Peoria,IL,40.6780892,-89.6791814
PIHA,2777 Garrett Way,Pocatello,ID,42.886792,-112.4748542
PIMA,1675 Akin Anderson Road S,Register,GA,32.3235392,-81.8817991
PIRA,3351 Airport Road,Pierre,SD,44.3815746,-100.3088695
PITHQ,,,,,
PITRT,800 Corporation Drive,Aliquippa,PA,40.5583725,-80.2729121
PKBA,6650 Emerson Avenue,Parkersburg,WV,39.3132812,-81.4821776
PLA,,,,,
PLBA,768 Route 3,Plattsburgh,NY,44.6963472,-73.5242302
PLNA,1285 Mackinaw Highway,Pellston,MI,45.5694261,-84.7856537
PLSA,Leeward Highway,Providenciales,,21.7835153,-72.195349
PNSA,5903 North W Street,Pensacola,FL,30.4733625,-87.2585024
PNVA,626 Eagleton Downs Drive,Pineville,NC,35.101923,-80.9058518
POCA,1081 Fullerton Road,City Of Industry,CA,33.9997294,-117.9076717
POSA,Pasea & Church Roosevelt Hwy,Tunapuna,,10.637925,-61.389673
POYA,3243 Duggleby Drive,Cody,WY,44.5128476,-109.0291882
PPEB,Av Hidalgo 38 La Romana,Tlalnepantla De Baz,EM,19.5462169,-99.1984141
PPEQ,Jose Ma Castorena 324-4,Mexico,DF,19.3609772,-99.2914367
PPET,Blvd Adolfo Lopez Mateos # 9-2,Atizapan De Zaragoza,EM,19.5452946,-99.2386505
PPEW,Ave De Las Armas 315,Mexico,DF,19.5159204,-99.2066803
PPFA,1411 South 21st Street,Parsons,KS,37.3277715,-95.2698011
PQIA,975 Skyway Street,Presque Isle,ME,46.7000758,-68.0455968
PRCA,6501 East Second Street,Prescott Valley,AZ,34.5792109,-112.3544533
PSEA,Pr-5506 Km 0.1 Inter Pr-1,Ponce,PR,18.0104902,-66.5772238
PSFA,One Federico Drive,Pittsfield,MA,42.4541719,-73.1978487
PTBA,2011 Factory Lane,Petersburg,VA,37.2413173,-77.3736155
PTPA,Immue Orlando Rue Ferd Forest,Jarry,,16.2401902,-61.5673186
PTYA,Parque Industrl Costa Del Este,Panama City,,9.0162617,-79.4746384
PTYB,55 St Obarrio & Samel Lewis,Panama,,8.9856742,-79.5228926
PTYR,Tocumen Cargo Terminal,Panama City,,9.0843564,-79.3766147
PUBA,4601 North Elizabeth Street,Pueblo,CO,38.3186553,-104.6194817
PUBSC,,,,,
PUJB,,,,,
PVDR,540 Airport Road,Warwick,RI,41.73254,-71.4263736
PVUA,70 North 1200 West,Orem,UT,40.2986739,-111.7257397
PWMR,261 Yellowbird Road,Portland,ME,43.6498854,-70.3051147
PWTA,5634 Imperial Way SW,Bremerton,WA,47.4999091,-122.7628063
PYMA,310 Paramount Drive,Raynham,MA,41.9003337,-71.0320935
SAA,,,,,
SAFA,2542 Camino Entrada,Santa Fe,NM,35.6343472,-106.0268075
SANRT,9999 Olson Drive,San Diego,CA,32.8870423,-117.1981418
SATHQ,,,,,
SATR,10311 Wetmore Road,San Antonio,TX,29.5319218,-98.4587792
SAVA,51 Nicholson Drive,Savannah,GA,32.118039,-81.1968111
SAVR,1222 Travis Field Road,"Travis Field Road, Savannah",GA,32.1104857,-81.197483
SBAA,495 South Fairview Avenue,Goleta,CA,34.4324429,-119.8342084
SBNA,5301 Lincoln Way West,South Bend,IN,41.7015489,-86.3239364
SBPA,705 Fiero Lane,San Luis Obispo,CA,35.2434584,-120.6458169
SBSA,2717 South Copper Passage,Steamboat Springs,CO,40.510402,-106.8588381
SBYA,5255 Falcon Drive,Salisbury,MD,38.3364426,-75.5101137
SCEA,2175 Fox Hill Road,State College,PA,40.8492554,-77.8566937
SCFA,1375 North Hayden Road,Scottsdale,AZ,33.4629954,-111.9105622
SCKA,935 Performance Drive,Stockton,CA,37.8977153,-121.2628165
SCLA,Salar De Atacama 1280,Pudahuel,Metropolitana,33.4308114,-70.7828727
SCLE,,,,,
SCLPC,Cargo Terminal Amb Airport,Cargo Terminal Amb Airport Pudahuel,Metropolitana,33.3897799,-70.796616
SCLR,Cargo Terminal Amb Airport,Pudahuel,Metropolitana,33.3897796,-70.8031821
SCRA,11 Alcazar St,Salar De Atacama 1280 Pudahuel,Metropolitana,33.4308114,-70.7828727
SDFR,4901 Crittenden Drive,Louisville,KY,38.1773743,-85.7510715
SDMA,1650 47th Street,San Diego,CA,32.722638,-117.0964904
SDQA,Ave De Los Proceres,Santo Domingo,Dominican Republic,18.4894519,-69.9520223
SDQB,Manuel De Jesus Troncoso,Santo Domingo ,Dominican Republic,18.4795998,-69.9512725
SDQR,Aeropuerto Int'l Las Americas,Santo Domingo ,Dominican Republic,18.4695537,-69.8136561
SEART,2330 South 156th Street,Seattle,WA,47.463992,-122.3031291
SFORT,Sfo Intl Airport Bldg 900,San Francisco,CA,37.6213129,-122.3811441
SGFR,5141 West Cargo Street,Springfield,MO,37.2505762,-93.387145
SGUA,1170 East Venture Drive,George,UT,37.0302213,-113.5615536
SHAA,No.3988 Hong Mei Nan Lu,Shanghai,Shi,31.074934,121.4401962
SHDA,1333 Pleasants Drive,Harrisonburg,VA,38.3891146,-78.9041487
SHRA,905 West Brundage Lane,Sheridan,WY,44.7728269,-106.9715827
SHVR,5699 West Perimeter Road,Shreveport,LA,32.4500797,-93.8397286
SIGA,Metro Office Park Calle 2,Guaynabo,PR,18.4151242,-66.1079979
SIKA,2830 East Malone Avenue,Sikeston,MO,36.8948241,-89.530948
SITA,400 Airport Road,Sitka,AK,57.0513261,-135.364122
SJCR,2091 Airport Boulevard,San Jose,CA,37.3750222,-121.9385142
SJCRT,1709 Junction Ct,San Jose,CA,37.372664,-121.9069407
SJTA,8688 Hangar Road,San Angelo,TX,31.3563138,-100.5061837
SJURT,Lmm International Airport,Carolina,PR,18.4353151,-66.0110389
SKBA,Wilma Philip Street,St Kitts & Nevis,,17.2961,-62.7179087
SLCR,3834 West 1580 North,Salt Lake City,UT,40.8037194,-111.9883854
SLEA,2900 25th Street Southeast,Salem,OR,44.9116356,-123.0104729
SLNA,3450 Centennial Road,Salina,KS,38.775096,-97.6343695
SLUA,Cnr Of Vigie Roundabout,Castries,LC,14.0217392,-61.0022012
SMA,,,,,
SMFA,3950 Development Drive,Sacramento,CA,38.6395169,-121.4626273
SMFHQ,,,,,
SMFRT,431 Richards Boulevard,Sacramento,CA,38.598067,-121.4973936
SMTA,13 Wu Chuan 3 Rd Wugu Dist,Wu Ku District,TW,25.0965145,121.4004725
SOWA,1560 East Thornton Road,Show Low,AZ,34.2645413,-110.0278971
SPIA,600 Corporate Court,Springfield,IL,39.7513583,-89.6495632
SPSA,2701 Southridge Drive,Wichita Falls,TX,33.883763,-98.4697166
SQLA,900 Gateway Boulevard,South San Francisco,CA,37.6611103,-122.3952882
SRFA,1637 East Francisco Boulevard,San Rafael,CA,37.9500599,-122.4957008
SRUA,2660 Research Park Drive,Soquel,CA,36.9837212,-121.969698
SSA,,,,,
STA,,,,,
STIA,Aerop Intl Cibao/Carret Duarte,Santiago,DO,19.4021334,-70.604096
STLR,6143 James S Mcdonnell Blvd,Berkeley,MO,38.7496388,-90.3512118
STLRT,119 Corporate Woods Court,Bridgeton,MO,38.790043,-90.4617776
STQA,3708 Progress Boulevard,Peru,IL,41.354306,-89.1249837
STTA,Cyril E King Airport,St. Thomas,VI,18.3360608,-64.9744613
STXA,Estate Peter's Rest,St. Croix,VI,17.7338017,-64.7693302
SUAA,4455 Southwest Martin Highway,Palm City,FL,27.1628517,-80.3147075
SUNA,910 Business Park Dr,Hailey,ID,43.5114431,-114.3105154
SVDA,104 Haliflax Street.,Kingstown,VC,13.1541715,-61.2262174
SWFA,100 Enterprise Drive,Newburgh,NY,41.5131408,74.1165128
SWFR,140 Cargo Road,Newburgh,NY,41.5081027,-74.1154145
SWIA,2832 Fallon Drive,Sherman,TX,33.6872424,-96.5774411
SWOA,1410 West Airport Road,Stillwater,OK,36.1594636,-97.0783402
SWRT,,,,,
SXJA,Zhonghaixin Ind Park,Shenzhen,CN,22.5549176,113.7736707
SXMA,Welfare Road 64,Cole Bay,SX,18.0318929,-63.0897402
SYIA,2298 Armory Drive,Murfreesboro,TN,35.850181,-86.437763
SYMA,"Tong Fu Yu Ind Zone,Yong He Rd",Shenzhen,CN,22.6838702,113.8232974
SYRA,6313 Running Ridge,North Syracuse,NY,43.1316509,-76.0879784
SYRRT,4014 South Service Road,North Syracuse,NY,43.1124428,-76.1239
SZOA,"West Of Xin Ling Rd., Da Lang",Shenzhen,CN,22.6939933,113.9981832
SZVA,58 Xing Wu Road,Suzhou,CN,31.3280438,120.3640989
SZXA,"Xiangqi Bldg, Xinzhou",Shenzhen,CN,22.5246459,114.0474455
UCAA,115 Dry Road,Oriskany,NY,43.161466,-75.3848501
UGIA,1600 Bluefield Avenue,Bluefield,WV,37.2617908,-81.2460157
UINA,3904 Commercial Drive,Quincy,IL,39.9778604,-91.3722866
UKIA,1329 South State Street,Ukiah,CA,39.1309477,-123.206118
ULR,,,,,
UOXA,510 Highway 35 North,Batesville,MS,34.3482726,-89.9230589
UPA,,,,,
USA,,,,,
USR,,,,,
UTA,,,,,
VAPA,This Is A Sort Location Only,Valparaiso,CL,-33.0507029,-71.6460683
VCTA,1404 East Rio Grande Street,Victoria,TX,28.8073141,-96.9913554
VDZA,260 Airport Road,Valdez,AK,61.1291004,-146.2563398
VGTA,1121 West Cheyenne Avenue,North Las Vegas,NV,36.2169668,-115.1587739
VISA,9510 West Airport Drive,Visalia,CA,36.3252517,-119.396494
VLDA,109 Hemlock,Valdosta,GA,30.8210695,-83.3052502
VNYA,16633 Schoenborn Street,North Hills,CA,34.223378,-118.497189
VPSA,106 Hill Avenue,Fort Walton Beach,FL,30.4218109,-86.6700259
WASA,1501 Eckington Place Northeast,Washington,DC,38.9099027,-77.0062748
WFA,,,,,
WHHA,6531 West 56th Avenue,Arvada,CO,39.7990405,-105.0715384
WIA,,,,,
WJFA,133 East Avenue K-6,Lancaster,CA,34.670041,-118.1310118
WMHA,92 Norcross Pl And Hwy 62 West,Mountain Home,AR,36.3156925,-92.4057977
WOTA,8-1 Hangqin N.Rd. Dayuan Dist,Taoyuan District,TW,25.0921823,121.2452453
WSHA,579 Edwards Avenue,Calverton,NY,40.9253275,-72.7505103
WTCA,130 Leroy Street,New York,NY,40.7300873,-74.0108095
WUXA,No.29 Changjiang South Road,Wuxi,CN,61.5721086,-149.4052201
WWAA,1900 Foundery Way,Wasilla,AK,61.5721086,-149.4052201
XGA,,,,,
XKA,,,,,
YAZA,15110 54a Ave,Surrey,BC,49.1011736,-122.8051213
YBYA,4270 Dawson St,Burnaby,BC,49.264087,-123.0116772
YBZA,475 Commissioners Street,Toronto,ON,43.6508259,-79.3404712
YCMA,495 Eastchester Ave E.,St Catharines,ON,43.170904,-79.2032206
YDGA,196 Lower Truro Rd,Truro,NS,45.3595647,-63.3102341
YDTA,941 Hornby St,Vancouver,BC,49.2812084,-123.1264266
YEGA,3803 56 Ave NW,Edmonton,AB,53.4925674,-113.4042148
YEGR,3732 57th Avenue East,Edmonton Int'l Airport,AB,53.3251836,-113.572436
YEGRT,3732 57th Avenue East,Edmonton,AB,53.3251992,-113.5724353
YFCA,125 Whiting Rd,Fredericton,NB,45.9133588,-66.6209804
YFHA,60 Valleybrook Dr,Don Mills,ON,43.7594062,-79.3571048
YHMA,4243 North Service Road,Burlington,ON,43.373565,-79.7835452
YHZA,20 Payzant Ave,Dartmouth,NS,44.7153448,-63.5859693
YIBA,6895 Bramalea Rd,Mississauga,ON,43.6839026,-79.6612049
YKAA,3045 Airport Rd.,Kamloops,BC,50.7052221,-120.4468041
YKFA,50 Barnes Rd,Cambridge,ON,43.4186757,-80.3853643
YKMA,3102 West Washington Avenue,Yakima,WA,46.5724858,-120.5520416
YKZA,56 Steelcase Road West,Markham,ON,31.496477,120.4020843
YLWA,6191 Airport Way,Kelowna,BC,49.9678084,-119.3842113
YMXA,12005 Raymonde-De-La-Roche,Mirabel,PQ,45.6794728,-74.0472397
YMXR,12005 Cargo,Mirabel,PQ,45.6797377,-74.0478043
YOWA,130 Thad Johnson Road,Ottawa,ON,45.3258022,-75.6545437
YQBA,5205 Rideau,Quebec,PQ,46.7966361,-71.3319821
YQGA,3480 Wheelton Drive,Windsor,ON,42.2796273,-82.9643584
YQGRT,3480 Wheelton Drive,Windsor,ON,42.2796273,-82.9643584
YQMA,1785 Champlain St,Dieppe,NB,46.1045755,-64.6723716
YSJA,250 Industrial Drive,Saint John,NB,45.2760256,-66.0043718
YSR,,,,,
YSRT,,,,,
YSWA,5005 J Armand Bombardier,Saint Hubert,PQ,45.4629291,-73.4097798
YTOA,1450 Caterpillar Rd,Mississauga,ON,43.6050494,-79.5763489
YULA,4041 Sere St,Saint-Laurent,PQ,45.4867316,-73.7083511
YULD,4041 Rue Sere,Ville St Laurent,PQ,45.4866942,-73.7083161
YULT,,,,,
YUMA,289 West 40th Street,Yuma,AZ,32.654035,-114.6243927
YUTA,6415 Cote-De-Liesse,Saint-Laurent,PQ,45.4874154,-73.694852
YUXA,8481 Place Marien,Montreal,PQ,45.6432943,-73.5423256
YVRA,3151 Aylmer Rd,Richmond,BC,49.1882556,-123.1574881
YVRRT,3151 Aylmer Rd,Richmond,BC,49.1882556,-123.1574881
YWGA,1950 Sargent Ave,Winnipeg,MB,49.897617,-97.2242897
YWGR,1950 Sargent Ave,Winnipeg,MB,49.897617,-97.2242897
YXDA,3732 57 Ave East,Edmonton Int'l Ap,AB,53.3251836,-113.572436
YXUA,461 Exeter Rd,London,ON,42.9237279,-81.237621
YYCA,24 Aero Drive NE,Calgary,AB,51.1197694,-114.0340288
YYCR,24 Aero Drive NE,Calgary,AB,51.1197694,-114.0340288
YYCRT,24 Aero Drive NE,Calgary,AB,51.1197694,-114.0340288
YYGA,3d Macaleer Dr.,Charlottetown,PE,46.2778471,-63.1425691
YYTA,11 Hallett Cresent,St. John's,NF,47.5620627,-52.7723445
ZMLA,2001 Airport Road,Waukesha,WI,43.0296807,-88.2319906
ZSYA,3340 East Thomas Road,Phoenix,AZ,33.4811506,-112.0111679
ZTYRT,1500 Blueball Avenue,Linwood,PA,39.8217672,-75.4361747
ZZA,,,,,
ZZVA,1558 Fairview Road,Zanesville,OH,40.0084382,-82.02153
ATWR,W6322 Atlantis Drive,Appleton,WI,44.2678754,-88.5102896
BOIR,2622 Lockheed Lane,Boise,ID,43.5664038,-116.2169027
RAPA,2350 East Saint Patrick Street,Rapid City,SD,44.0679325,-103.1782962
RBGA,1260 Walnut Street,Roseburg,OR,43.2252199,-123.3538434
RDDA,6775 Woodrum Circle,Redding,CA,40.5030361,-122.3018584
RDGA,1017 A Macarthur Road,Reading,PA,40.3769546,-75.9758692
RDUA,2311 Englert Drive,Durham,NC,35.8961148,-78.8936459
RDURT,1221 International Drive,Raleigh,NC,35.8888485,-78.7782051
RDVRT,3 Furlong Drive,Revere,MA,42.4006207,-71.0060955
RECA,Rodovia Br101 Sul Km 80.4,Recife,PE,-8.159346,-34.9471156
RHIA,3375 Airport Road,Rhinelander,WI,45.6284165,-89.4617395
RICR,5300 Federal Road,Richmond,VA,37.5020317,-77.3370773
RICRT,5210 Anthony Road,Sandston,VA,37.5151609,-77.3402947
RIDA,609 Commerce Road,Richmond,IN,39.8380347,-84.8261501
RIWA,710 East Monroe Avenue,Riverton,WY,43.0197249,-108.3836997
RKSA,2002 Sunset Drive,Rock Springs,WY,41.573071,-109.2713099
RKWA,10601 Murdock Drive,Knoxville,TN,35.9186936,-84.1445481
RLAA,11290 Twitty Drive,Rolla,MO,37.9701806,-91.7572493
RNOA,1440 Capital Boulevard,Reno,NV,39.5015086,-119.7561934
RNORT,1440 Capitol Blvd,Reno,NV,39.5015086,-119.7561934
ROAA,3875 Thirlane Road,Roanoke,VA,37.3154202,-79.9793537
ROAR,5824 Airport Road,Roanoke,VA,37.3290407,-79.9701108
ROCR,1195 Scottsville Road,Rochester,NY,43.1195832,-77.6583158
ROGA,1004 Phyllis Unit #1,Bentonville,AR,36.359737,-94.1824443
ROSA,Av. Pellegrini 931,Rosario,SF,-32.9579093,-60.6407129
ROWA,206 East College,Roswell,NM,33.4083483,-104.5218837
RSTA,7800 Leqve Drive SW,Rochester,MN,43.9077191,-92.4888047
RSWRT,15960 Chamberlin Parkway,Fort Myers,FL,26.5340461,-81.7690132
RUTA,311 Innovation Drive,North Clarendon,VT,43.5244596,-72.9568268
RWIA,4908 Caswell Place,Wilson,NC,35.7591947,-78.0021936
RZZA,4301 Atlantic Avenue,Raleigh,NC,35.8421372,-78.604274
TCLA,901 29th Street,Tuscaloosa,AL,33.184135,-87.5520494
TCMA,2503 Frank Albert Road,Tacoma,WA,47.2336256,-122.3686035
THAA,1742 General George Patton Dr,Brentwood,TN,35.9632391,-86.8255564
TLCE,Independencia Oriente 1900-C,Toluca,EM,19.2921666,-99.6161605
TLCP,,,,,
TLHR,3380 Capital Circle Southwest,Tallahassee,FL,30.3959517,-84.3426721
TNNA,180-5 Zhongshan Rd Xinshi Dist,Tainan City,TW,23.0525492,120.3208373
TPAR,4100 Air Cargo Road,Tampa,FL,27.9757307,-82.5220612
TPEA,No.95-7 Bao Chung Rd,Hsin Tien District,TW,24.9283692,121.4639288
TPLA,3404 Kegley Road,Temple,TX,31.0826447,-97.4164553
TSAA,#130 Xinhu 1st Rd Neihu Dist,Taipei City,TW,25.059658,121.5752813
TSMA,1040 Paseo Del Pueblo Sur,Taos,NM,36.3836019,-105.5897867
TSSA,148 Leroy Street,New York,NY,40.730082,-74.0115899
TTDA,213 North Wasco Court,Hood River,OR,45.7115321,-121.5371314
TULR,2121 North 85th East Avenue,Tulsa,OK,36.1872391,-95.8815996
TUPA,1155 South Gloster Street,Tupelo,MS,34.2314054,-88.7221313
TUSA,3601 East Columbia Street,Tucson,AZ,32.1734702,-110.917646
TUSR,2760 East Airport Drive,Tucson,AZ,32.1149805,-110.9317713
TWFA,141 Joslin Way,Twin Falls,ID,42.4854668,-114.4822388
TXGA,#25 Gongyequ 19 Rd Nantun Dist,Taichung City,TW,24.1571407,120.6066951
TXKA,1407 College Drive,Texarkana,TX,33.4483785,-94.0633904
TYSR,2037 Callahan Road,Louisville,TN,35.8228956,-83.9902551
TYSRT,3231 North Park Boulevard,Alcoa,TN,35.8273236,-83.9695152